{
    "links": {
        "self": "http://www.neowsapp.com/rest/v1/neo/3749070?api_key=iIulBulltgU6a56xZRHN4H3l9WmuAYTsLGpBGhQ2"
    },
    "id": "3749070",
    "neo_reference_id": "3749070",
    "name": "(2016 GU2)",
    "designation": "2016 GU2",
    "nasa_jpl_url": "http://ssd.jpl.nasa.gov/sbdb.cgi?sstr=3749070",
    "absolute_magnitude_h": 24.0,
    "estimated_diameter": {
        "kilometers": {
            "estimated_diameter_min": 0.0421264611,
            "estimated_diameter_max": 0.0941976306
        },
        "meters": {
            "estimated_diameter_min": 42.1264610556,
            "estimated_diameter_max": 94.1976305719
        },
        "miles": {
            "estimated_diameter_min": 0.0261761612,
            "estimated_diameter_max": 0.0585316759
        },
        "feet": {
            "estimated_diameter_min": 138.2101784897,
            "estimated_diameter_max": 309.0473542854
        }
    },
    "is_potentially_hazardous_asteroid": false,
    "close_approach_data": [
        {
            "close_approach_date": "2001-05-06",
            "close_approach_date_full": "2001-May-06 21:31",
            "epoch_date_close_approach": 989184660000,
            "relative_velocity": {
                "kilometers_per_second": "53.0496654889",
                "kilometers_per_hour": "190978.7957599018",
                "miles_per_hour": "118666.7967320345"
            },
            "miss_distance": {
                "astronomical": "0.459987187",
                "lunar": "178.935015743",
                "kilometers": "68813103.40249169",
                "miles": "42758479.717257722"
            },
            "orbiting_body": "Earth"
        },
        {
            "close_approach_date": "2001-05-10",
            "close_approach_date_full": "2001-May-10 19:46",
            "epoch_date_close_approach": 989523960000,
            "relative_velocity": {
                "kilometers_per_second": "44.6377427286",
                "kilometers_per_hour": "160695.8738227876",
                "miles_per_hour": "99850.1667094982"
            },
            "miss_distance": {
                "astronomical": "0.1156669537",
                "lunar": "44.9944449893",
                "kilometers": "17303529.902908619",
                "miles": "10751914.9087481822"
            },
            "orbiting_body": "Venus"
        },
        {
            "close_approach_date": "2016-03-28",
            "close_approach_date_full": "2016-Mar-28 09:12",
            "epoch_date_close_approach": 1459156320000,
            "relative_velocity": {
                "kilometers_per_second": "38.5769407627",
                "kilometers_per_hour": "138876.9867458161",
                "miles_per_hour": "86292.7587921434"
            },
            "miss_distance": {
                "astronomical": "0.0284969952",
                "lunar": "11.0853311328",
                "kilometers": "4263089.783320224",
                "miles": "2648961.1573941312"
            },
            "orbiting_body": "Earth"
        },
        {
            "close_approach_date": "2017-10-30",
            "close_approach_date_full": "2017-Oct-30 12:39",
            "epoch_date_close_approach": 1509367140000,
            "relative_velocity": {
                "kilometers_per_second": "9.9901246885",
                "kilometers_per_hour": "35964.4488787644",
                "miles_per_hour": "22346.9099158078"
            },
            "miss_distance": {
                "astronomical": "1.592171959",
                "lunar": "619.354892051",
                "kilometers": "238185533.74012733",
                "miles": "148001627.739443954"
            },
            "orbiting_body": "Juptr"
        },
        {
            "close_approach_date": "2019-03-18",
            "close_approach_date_full": "2019-Mar-18 04:54",
            "epoch_date_close_approach": 1552884840000,
            "relative_velocity": {
                "kilometers_per_second": "30.4563211654",
                "kilometers_per_hour": "109642.7561953169",
                "miles_per_hour": "68127.7448148068"
            },
            "miss_distance": {
                "astronomical": "0.2965545631",
                "lunar": "115.3597250459",
                "kilometers": "44363930.978540597",
                "miles": "27566468.4359383586"
            },
            "orbiting_body": "Earth"
        }
    ],
    "orbital_data": {
        "orbit_id": "7",
        "orbit_determination_date": "2017-04-06 08:26:48",
        "first_observation_date": "2016-04-03",
        "last_observation_date": "2016-04-10",
        "data_arc_in_days": 7,
        "observations_used": 30,
        "orbit_uncertainty": "8",
        "minimum_orbit_intersection": ".027913",
        "jupiter_tisserand_invariant": "2.889",
        "epoch_osculation": "2457484.5",
        "eccentricity": ".9574974744018914",
        "semi_major_axis": "2.054395913399556",
        "inclination": "10.27708697352492",
        "ascending_node_longitude": "16.51719427881511",
        "orbital_period": "1075.535229987242",
        "perihelion_distance": ".08731701489791437",
        "perihelion_argument": "21.02482054721346",
        "aphelion_distance": "4.021474811901196",
        "perihelion_time": "2457442.355814473750",
        "mean_anomaly": "14.10637826306254",
        "mean_motion": ".3347170691975105",
        "equinox": "J2000",
        "orbit_class": {
            "orbit_class_type": "APO",
            "orbit_class_description": "Near-Earth asteroid orbits which cross the Earth’s orbit similar to that of 1862 Apollo",
            "orbit_class_range": "a (semi-major axis) > 1.0 AU; q (perihelion) < 1.017 AU"
        }
    },
    "is_sentry_object": false
}